ONEWEB-0196             
1 48218U 21031J   26060.12978890  .00000158  00000+0  39291-3 0  9998
2 48218  87.8999 311.2638 0001830  81.3431 278.7906 13.14502094234031
ONEWEB-0183             
1 48219U 21031K   26059.72381968 -.00000193  00000+0 -55433-3 0  9994
2 48219  87.9003 311.3446 0001696  72.6239 287.5076 13.14500982234070
ONEWEB-0185             
1 48220U 21031L   26060.13056963 -.00000114  00000+0 -34087-3 0  9992
2 48220  87.9000 311.2495 0001958  70.8817 289.2525 13.14502666234052
ONEWEB-0187             
1 48221U 21031M   26060.11061530 -.00000137  00000+0 -40354-3 0  9996
2 48221  87.8991 311.2863 0001949  78.2288 281.9060 13.14501094234062
ONEWEB-0192             
1 48222U 21031N   26060.15674375  .00000122  00000+0  29572-3 0  9999
2 48222  87.8991 311.2664 0001718  82.6331 277.4994 13.14501542233988
ONEWEB-0219             
1 48223U 21031P   26060.13613232  .00000256  00000+0  65614-3 0  9998
2 48223  87.9001 311.2546 0001899  76.1579 283.9762 13.14501966234181
ONEWEB-0202             
1 48224U 21031Q   26060.11711204 -.00000077  00000+0 -24349-3 0  9998
2 48224  87.9001 311.2672 0002142  97.2617 262.8756 13.14504837234168
ONEWEB-0204             
1 48225U 21031R   26060.15119924  .00000208  00000+0  52544-3 0  9996
2 48225  87.9004 311.2544 0001695  69.4826 290.6486 13.14502244234063
ONEWEB-0205             
1 48226U 21031S   26060.12661782  .00000085  00000+0  19350-3 0  9999
2 48226  87.9002 311.2513 0001846  77.3519 282.7817 13.14502115234071
ONEWEB-0206             
1 48227U 21031T   26060.17577704 -.00000122  00000+0 -36391-3 0  9993
2 48227  87.9014 311.2404 0001462  84.7698 275.3598 13.14502149234035
ONEWEB-0182             
1 48228U 21031U   26060.17101344 -.00000059  00000+0 -19460-3 0  9994
2 48228  87.8997 311.2556 0001628  71.3392 288.7914 13.14501287234245
ONEWEB-0186             
1 48229U 21031V   26059.72541360 -.00000214  00000+0 -61108-3 0  9999
2 48229  87.9008 311.3307 0001796  79.3363 280.7969 13.14501991234139
ONEWEB-0181             
1 48230U 21031W   26060.15991463  .00000150  00000+0  37056-3 0  9995
2 48230  87.8991 311.2874 0001833  81.7657 278.3681 13.14501508234042
ONEWEB-0188             
1 48231U 21031X   26060.12185723  .00000049  00000+0  96873-4 0  9997
2 48231  87.8994 311.2930 0001727  78.8946 281.2378 13.14501571233943
ONEWEB-0220             
1 48232U 21031Y   26060.16149993  .00000107  00000+0  25279-3 0  9997
2 48232  87.9009 311.2428 0001862  77.6173 282.5165 13.14501478234218
ONEWEB-0165             
1 48233U 21031Z   26060.11392584 -.00000129  00000+0 -38184-3 0  9994
2 48233  87.9001 311.2698 0001932  87.0510 273.0840 13.14501682234164
ONEWEB-0199             
1 48234U 21031AA  26060.17418217 -.00000056  00000+0 -18501-3 0  9993
2 48234  87.9004 311.2395 0001539  79.8552 280.2751 13.14501100234076
