[{"OBJECT_NAME":"ONEWEB-0196","OBJECT_ID":"2021-031J","EPOCH":"2026-03-01T03:06:53.760960","MEAN_MOTION":13.14502094,"ECCENTRICITY":0.000183,"INCLINATION":87.8999,"RA_OF_ASC_NODE":311.2638,"ARG_OF_PERICENTER":81.3431,"MEAN_ANOMALY":278.7906,"EPHEMERIS_TYPE":0,"CLASSIFICATION_TYPE":"U","NORAD_CAT_ID":48218,"ELEMENT_SET_NO":999,"REV_AT_EPOCH":23403,"BSTAR":0.00039291,"MEAN_MOTION_DOT":1.58e-6,"MEAN_MOTION_DDOT":0},{"OBJECT_NAME":"ONEWEB-0183","OBJECT_ID":"2021-031K","EPOCH":"2026-02-28T17:22:18.020352","MEAN_MOTION":13.14500982,"ECCENTRICITY":0.00016969,"INCLINATION":87.9003,"RA_OF_ASC_NODE":311.3446,"ARG_OF_PERICENTER":72.6239,"MEAN_ANOMALY":287.5076,"EPHEMERIS_TYPE":0,"CLASSIFICATION_TYPE":"U","NORAD_CAT_ID":48219,"ELEMENT_SET_NO":999,"REV_AT_EPOCH":23407,"BSTAR":-0.00055432698,"MEAN_MOTION_DOT":-1.93e-6,"MEAN_MOTION_DDOT":0},{"OBJECT_NAME":"ONEWEB-0185","OBJECT_ID":"2021-031L","EPOCH":"2026-03-01T03:08:01.216032","MEAN_MOTION":13.14502666,"ECCENTRICITY":0.0001958,"INCLINATION":87.9,"RA_OF_ASC_NODE":311.2495,"ARG_OF_PERICENTER":70.8817,"MEAN_ANOMALY":289.2525,"EPHEMERIS_TYPE":0,"CLASSIFICATION_TYPE":"U","NORAD_CAT_ID":48220,"ELEMENT_SET_NO":999,"REV_AT_EPOCH":23405,"BSTAR":-0.00034087,"MEAN_MOTION_DOT":-1.14e-6,"MEAN_MOTION_DDOT":0},{"OBJECT_NAME":"ONEWEB-0187","OBJECT_ID":"2021-031M","EPOCH":"2026-03-01T02:39:17.161920","MEAN_MOTION":13.14501094,"ECCENTRICITY":0.0001949,"INCLINATION":87.8991,"RA_OF_ASC_NODE":311.2863,"ARG_OF_PERICENTER":78.2288,"MEAN_ANOMALY":281.906,"EPHEMERIS_TYPE":0,"CLASSIFICATION_TYPE":"U","NORAD_CAT_ID":48221,"ELEMENT_SET_NO":999,"REV_AT_EPOCH":23406,"BSTAR":-0.00040354,"MEAN_MOTION_DOT":-1.37e-6,"MEAN_MOTION_DDOT":0},{"OBJECT_NAME":"ONEWEB-0192","OBJECT_ID":"2021-031N","EPOCH":"2026-03-01T03:45:42.660000","MEAN_MOTION":13.14501542,"ECCENTRICITY":0.0001718,"INCLINATION":87.8991,"RA_OF_ASC_NODE":311.2664,"ARG_OF_PERICENTER":82.6331,"MEAN_ANOMALY":277.4994,"EPHEMERIS_TYPE":0,"CLASSIFICATION_TYPE":"U","NORAD_CAT_ID":48222,"ELEMENT_SET_NO":999,"REV_AT_EPOCH":23398,"BSTAR":0.00029572,"MEAN_MOTION_DOT":1.22e-6,"MEAN_MOTION_DDOT":0},{"OBJECT_NAME":"ONEWEB-0219","OBJECT_ID":"2021-031P","EPOCH":"2026-03-01T03:16:01.832448","MEAN_MOTION":13.14501966,"ECCENTRICITY":0.0001899,"INCLINATION":87.9001,"RA_OF_ASC_NODE":311.2546,"ARG_OF_PERICENTER":76.1579,"MEAN_ANOMALY":283.9762,"EPHEMERIS_TYPE":0,"CLASSIFICATION_TYPE":"U","NORAD_CAT_ID":48223,"ELEMENT_SET_NO":999,"REV_AT_EPOCH":23418,"BSTAR":0.00065614,"MEAN_MOTION_DOT":2.56e-6,"MEAN_MOTION_DDOT":0},{"OBJECT_NAME":"ONEWEB-0202","OBJECT_ID":"2021-031Q","EPOCH":"2026-03-01T02:48:38.480256","MEAN_MOTION":13.14504837,"ECCENTRICITY":0.0002142,"INCLINATION":87.9001,"RA_OF_ASC_NODE":311.2672,"ARG_OF_PERICENTER":97.2617,"MEAN_ANOMALY":262.8756,"EPHEMERIS_TYPE":0,"CLASSIFICATION_TYPE":"U","NORAD_CAT_ID":48224,"ELEMENT_SET_NO":999,"REV_AT_EPOCH":23416,"BSTAR":-0.00024349,"MEAN_MOTION_DOT":-7.7e-7,"MEAN_MOTION_DDOT":0},{"OBJECT_NAME":"ONEWEB-0204","OBJECT_ID":"2021-031R","EPOCH":"2026-03-01T03:37:43.614336","MEAN_MOTION":13.14502244,"ECCENTRICITY":0.0001695,"INCLINATION":87.9004,"RA_OF_ASC_NODE":311.2544,"ARG_OF_PERICENTER":69.4826,"MEAN_ANOMALY":290.6486,"EPHEMERIS_TYPE":0,"CLASSIFICATION_TYPE":"U","NORAD_CAT_ID":48225,"ELEMENT_SET_NO":999,"REV_AT_EPOCH":23406,"BSTAR":0.00052544,"MEAN_MOTION_DOT":2.08e-6,"MEAN_MOTION_DDOT":0},{"OBJECT_NAME":"ONEWEB-0205","OBJECT_ID":"2021-031S","EPOCH":"2026-03-01T03:02:19.779648","MEAN_MOTION":13.14502115,"ECCENTRICITY":0.0001846,"INCLINATION":87.9002,"RA_OF_ASC_NODE":311.2513,"ARG_OF_PERICENTER":77.3519,"MEAN_ANOMALY":282.7817,"EPHEMERIS_TYPE":0,"CLASSIFICATION_TYPE":"U","NORAD_CAT_ID":48226,"ELEMENT_SET_NO":999,"REV_AT_EPOCH":23407,"BSTAR":0.0001935,"MEAN_MOTION_DOT":8.5e-7,"MEAN_MOTION_DDOT":0},{"OBJECT_NAME":"ONEWEB-0206","OBJECT_ID":"2021-031T","EPOCH":"2026-03-01T04:13:07.136256","MEAN_MOTION":13.14502149,"ECCENTRICITY":0.0001462,"INCLINATION":87.9014,"RA_OF_ASC_NODE":311.2404,"ARG_OF_PERICENTER":84.7698,"MEAN_ANOMALY":275.3598,"EPHEMERIS_TYPE":0,"CLASSIFICATION_TYPE":"U","NORAD_CAT_ID":48227,"ELEMENT_SET_NO":999,"REV_AT_EPOCH":23403,"BSTAR":-0.00036391,"MEAN_MOTION_DOT":-1.22e-6,"MEAN_MOTION_DDOT":0},{"OBJECT_NAME":"ONEWEB-0182","OBJECT_ID":"2021-031U","EPOCH":"2026-03-01T04:06:15.561216","MEAN_MOTION":13.14501287,"ECCENTRICITY":0.0001628,"INCLINATION":87.8997,"RA_OF_ASC_NODE":311.2556,"ARG_OF_PERICENTER":71.3392,"MEAN_ANOMALY":288.7914,"EPHEMERIS_TYPE":0,"CLASSIFICATION_TYPE":"U","NORAD_CAT_ID":48228,"ELEMENT_SET_NO":999,"REV_AT_EPOCH":23424,"BSTAR":-0.0001946,"MEAN_MOTION_DOT":-5.9e-7,"MEAN_MOTION_DDOT":0},{"OBJECT_NAME":"ONEWEB-0186","OBJECT_ID":"2021-031V","EPOCH":"2026-02-28T17:24:35.735040","MEAN_MOTION":13.14501991,"ECCENTRICITY":0.0001796,"INCLINATION":87.9008,"RA_OF_ASC_NODE":311.3307,"ARG_OF_PERICENTER":79.3363,"MEAN_ANOMALY":280.7969,"EPHEMERIS_TYPE":0,"CLASSIFICATION_TYPE":"U","NORAD_CAT_ID":48229,"ELEMENT_SET_NO":999,"REV_AT_EPOCH":23413,"BSTAR":-0.00061108332,"MEAN_MOTION_DOT":-2.14e-6,"MEAN_MOTION_DDOT":0},{"OBJECT_NAME":"ONEWEB-0181","OBJECT_ID":"2021-031W","EPOCH":"2026-03-01T03:50:16.624032","MEAN_MOTION":13.14501508,"ECCENTRICITY":0.0001833,"INCLINATION":87.8991,"RA_OF_ASC_NODE":311.2874,"ARG_OF_PERICENTER":81.7657,"MEAN_ANOMALY":278.3681,"EPHEMERIS_TYPE":0,"CLASSIFICATION_TYPE":"U","NORAD_CAT_ID":48230,"ELEMENT_SET_NO":999,"REV_AT_EPOCH":23404,"BSTAR":0.00037056,"MEAN_MOTION_DOT":1.5e-6,"MEAN_MOTION_DDOT":0},{"OBJECT_NAME":"ONEWEB-0188","OBJECT_ID":"2021-031X","EPOCH":"2026-03-01T02:55:28.464672","MEAN_MOTION":13.14501571,"ECCENTRICITY":0.0001727,"INCLINATION":87.8994,"RA_OF_ASC_NODE":311.293,"ARG_OF_PERICENTER":78.8946,"MEAN_ANOMALY":281.2378,"EPHEMERIS_TYPE":0,"CLASSIFICATION_TYPE":"U","NORAD_CAT_ID":48231,"ELEMENT_SET_NO":999,"REV_AT_EPOCH":23394,"BSTAR":9.6873e-5,"MEAN_MOTION_DOT":4.9e-7,"MEAN_MOTION_DDOT":0},{"OBJECT_NAME":"ONEWEB-0220","OBJECT_ID":"2021-031Y","EPOCH":"2026-03-01T03:52:33.593952","MEAN_MOTION":13.14501478,"ECCENTRICITY":0.0001862,"INCLINATION":87.9009,"RA_OF_ASC_NODE":311.2428,"ARG_OF_PERICENTER":77.6173,"MEAN_ANOMALY":282.5165,"EPHEMERIS_TYPE":0,"CLASSIFICATION_TYPE":"U","NORAD_CAT_ID":48232,"ELEMENT_SET_NO":999,"REV_AT_EPOCH":23421,"BSTAR":0.00025279,"MEAN_MOTION_DOT":1.07e-6,"MEAN_MOTION_DDOT":0},{"OBJECT_NAME":"ONEWEB-0165","OBJECT_ID":"2021-031Z","EPOCH":"2026-03-01T02:44:03.192576","MEAN_MOTION":13.14501682,"ECCENTRICITY":0.0001932,"INCLINATION":87.9001,"RA_OF_ASC_NODE":311.2698,"ARG_OF_PERICENTER":87.051,"MEAN_ANOMALY":273.084,"EPHEMERIS_TYPE":0,"CLASSIFICATION_TYPE":"U","NORAD_CAT_ID":48233,"ELEMENT_SET_NO":999,"REV_AT_EPOCH":23416,"BSTAR":-0.00038184,"MEAN_MOTION_DOT":-1.29e-6,"MEAN_MOTION_DDOT":0},{"OBJECT_NAME":"ONEWEB-0199","OBJECT_ID":"2021-031AA","EPOCH":"2026-03-01T04:10:49.339488","MEAN_MOTION":13.145011,"ECCENTRICITY":0.0001539,"INCLINATION":87.9004,"RA_OF_ASC_NODE":311.2395,"ARG_OF_PERICENTER":79.8552,"MEAN_ANOMALY":280.2751,"EPHEMERIS_TYPE":0,"CLASSIFICATION_TYPE":"U","NORAD_CAT_ID":48234,"ELEMENT_SET_NO":999,"REV_AT_EPOCH":23407,"BSTAR":-0.00018501,"MEAN_MOTION_DOT":-5.6e-7,"MEAN_MOTION_DDOT":0}]
